CCSDS_OMM_VERS = 2.0
CREATION_DATE  = 
ORIGINATOR     = 

OBJECT_NAME    = STARLINK-35844
OBJECT_ID      = 2025-283C
CENTER_NAME    = EARTH
REF_FRAME      = TEME
TIME_SYSTEM    = UTC
MEAN_ELEMENT_THEORY = SGP/SGP4

EPOCH          = 2025-12-25T18:00:02.000160
MEAN_MOTION    = 15.59653929
ECCENTRICITY   = .0001018
INCLINATION    = 53.1597
RA_OF_ASC_NODE = 9.0275
ARG_OF_PERICENTER = 85.7024
MEAN_ANOMALY   = 278.5536

EPHEMERIS_TYPE = 0
CLASSIFICATION_TYPE = U
NORAD_CAT_ID   = 66880
ELEMENT_SET_NO = 999
REV_AT_EPOCH   = 452
BSTAR          = -.2798E-1
MEAN_MOTION_DOT = -.1995938E-1
MEAN_MOTION_DDOT = 0

CCSDS_OMM_VERS = 2.0
CREATION_DATE  = 
ORIGINATOR     = 

OBJECT_NAME    = STARLINK-35860
OBJECT_ID      = 2025-283D
CENTER_NAME    = EARTH
REF_FRAME      = TEME
TIME_SYSTEM    = UTC
MEAN_ELEMENT_THEORY = SGP/SGP4

EPOCH          = 2025-12-25T18:00:02.000160
MEAN_MOTION    = 15.59651377
ECCENTRICITY   = .000113
INCLINATION    = 53.1594
RA_OF_ASC_NODE = 9.0186
ARG_OF_PERICENTER = 80.8634
MEAN_ANOMALY   = 287.2262

EPHEMERIS_TYPE = 0
CLASSIFICATION_TYPE = U
NORAD_CAT_ID   = 66881
ELEMENT_SET_NO = 999
REV_AT_EPOCH   = 452
BSTAR          = -.27937E-1
MEAN_MOTION_DOT = -.1993153E-1
MEAN_MOTION_DDOT = 0

CCSDS_OMM_VERS = 2.0
CREATION_DATE  = 
ORIGINATOR     = 

OBJECT_NAME    = STARLINK-35912
OBJECT_ID      = 2025-283E
CENTER_NAME    = EARTH
REF_FRAME      = TEME
TIME_SYSTEM    = UTC
MEAN_ELEMENT_THEORY = SGP/SGP4

EPOCH          = 2025-12-25T18:00:02.000160
MEAN_MOTION    = 15.59652492
ECCENTRICITY   = .0001048
INCLINATION    = 53.1597
RA_OF_ASC_NODE = 9.0155
ARG_OF_PERICENTER = 82.2226
MEAN_ANOMALY   = 287.7840

EPHEMERIS_TYPE = 0
CLASSIFICATION_TYPE = U
NORAD_CAT_ID   = 66882
ELEMENT_SET_NO = 999
REV_AT_EPOCH   = 452
BSTAR          = -.27942E-1
MEAN_MOTION_DOT = -.1993462E-1
MEAN_MOTION_DDOT = 0

CCSDS_OMM_VERS = 2.0
CREATION_DATE  = 
ORIGINATOR     = 

OBJECT_NAME    = STARLINK-35947
OBJECT_ID      = 2025-283F
CENTER_NAME    = EARTH
REF_FRAME      = TEME
TIME_SYSTEM    = UTC
MEAN_ELEMENT_THEORY = SGP/SGP4

EPOCH          = 2025-12-25T18:00:02.000160
MEAN_MOTION    = 15.59645457
ECCENTRICITY   = .0000926
INCLINATION    = 53.1599
RA_OF_ASC_NODE = 9.0119
ARG_OF_PERICENTER = 90.3804
MEAN_ANOMALY   = 281.5471

EPHEMERIS_TYPE = 0
CLASSIFICATION_TYPE = U
NORAD_CAT_ID   = 66883
ELEMENT_SET_NO = 999
REV_AT_EPOCH   = 456
BSTAR          = -.27748E-1
MEAN_MOTION_DOT = -.1980777E-1
MEAN_MOTION_DDOT = 0

CCSDS_OMM_VERS = 2.0
CREATION_DATE  = 
ORIGINATOR     = 

OBJECT_NAME    = STARLINK-36057
OBJECT_ID      = 2025-283G
CENTER_NAME    = EARTH
REF_FRAME      = TEME
TIME_SYSTEM    = UTC
MEAN_ELEMENT_THEORY = SGP/SGP4

EPOCH          = 2025-12-25T18:00:02.000160
MEAN_MOTION    = 15.59648100
ECCENTRICITY   = .0000928
INCLINATION    = 53.1597
RA_OF_ASC_NODE = 9.0033
ARG_OF_PERICENTER = 94.6869
MEAN_ANOMALY   = 281.0721

EPHEMERIS_TYPE = 0
CLASSIFICATION_TYPE = U
NORAD_CAT_ID   = 66884
ELEMENT_SET_NO = 999
REV_AT_EPOCH   = 452
BSTAR          = -.27772E-1
MEAN_MOTION_DOT = -.1982444E-1
MEAN_MOTION_DDOT = 0

CCSDS_OMM_VERS = 2.0
CREATION_DATE  = 
ORIGINATOR     = 

OBJECT_NAME    = STARLINK-35954
OBJECT_ID      = 2025-283H
CENTER_NAME    = EARTH
REF_FRAME      = TEME
TIME_SYSTEM    = UTC
MEAN_ELEMENT_THEORY = SGP/SGP4

EPOCH          = 2025-12-25T18:00:02.000160
MEAN_MOTION    = 15.59643082
ECCENTRICITY   = .0000907
INCLINATION    = 53.1597
RA_OF_ASC_NODE = 9.0076
ARG_OF_PERICENTER = 93.8521
MEAN_ANOMALY   = 279.9924

EPHEMERIS_TYPE = 0
CLASSIFICATION_TYPE = U
NORAD_CAT_ID   = 66885
ELEMENT_SET_NO = 999
REV_AT_EPOCH   = 452
BSTAR          = -.27661E-1
MEAN_MOTION_DOT = -.1975166E-1
MEAN_MOTION_DDOT = 0

CCSDS_OMM_VERS = 2.0
CREATION_DATE  = 
ORIGINATOR     = 

OBJECT_NAME    = STARLINK-35900
OBJECT_ID      = 2025-283J
CENTER_NAME    = EARTH
REF_FRAME      = TEME
TIME_SYSTEM    = UTC
MEAN_ELEMENT_THEORY = SGP/SGP4

EPOCH          = 2025-12-25T18:00:02.000160
MEAN_MOTION    = 15.59644547
ECCENTRICITY   = .0000931
INCLINATION    = 53.1596
RA_OF_ASC_NODE = 8.9994
ARG_OF_PERICENTER = 92.8240
MEAN_ANOMALY   = 284.8526

EPHEMERIS_TYPE = 0
CLASSIFICATION_TYPE = U
NORAD_CAT_ID   = 66886
ELEMENT_SET_NO = 999
REV_AT_EPOCH   = 452
BSTAR          = -.27672E-1
MEAN_MOTION_DOT = -.1975965E-1
MEAN_MOTION_DDOT = 0

CCSDS_OMM_VERS = 2.0
CREATION_DATE  = 
ORIGINATOR     = 

OBJECT_NAME    = STARLINK-35925
OBJECT_ID      = 2025-283K
CENTER_NAME    = EARTH
REF_FRAME      = TEME
TIME_SYSTEM    = UTC
MEAN_ELEMENT_THEORY = SGP/SGP4

EPOCH          = 2025-12-25T18:00:02.000160
MEAN_MOTION    = 15.59641447
ECCENTRICITY   = .0000887
INCLINATION    = 53.1598
RA_OF_ASC_NODE = 8.9956
ARG_OF_PERICENTER = 93.2485
MEAN_ANOMALY   = 286.3475

EPHEMERIS_TYPE = 0
CLASSIFICATION_TYPE = U
NORAD_CAT_ID   = 66887
ELEMENT_SET_NO = 999
REV_AT_EPOCH   = 452
BSTAR          = -.27621E-1
MEAN_MOTION_DOT = -.1972505E-1
MEAN_MOTION_DDOT = 0

CCSDS_OMM_VERS = 2.0
CREATION_DATE  = 
ORIGINATOR     = 

OBJECT_NAME    = STARLINK-35919
OBJECT_ID      = 2025-283L
CENTER_NAME    = EARTH
REF_FRAME      = TEME
TIME_SYSTEM    = UTC
MEAN_ELEMENT_THEORY = SGP/SGP4

EPOCH          = 2025-12-25T18:00:02.000160
MEAN_MOTION    = 15.59641090
ECCENTRICITY   = .0000849
INCLINATION    = 53.1596
RA_OF_ASC_NODE = 8.9914
ARG_OF_PERICENTER = 90.8859
MEAN_ANOMALY   = 290.6266

EPHEMERIS_TYPE = 0
CLASSIFICATION_TYPE = U
NORAD_CAT_ID   = 66888
ELEMENT_SET_NO = 999
REV_AT_EPOCH   = 452
BSTAR          = -.27604E-1
MEAN_MOTION_DOT = -.1971418E-1
MEAN_MOTION_DDOT = 0

CCSDS_OMM_VERS = 2.0
CREATION_DATE  = 
ORIGINATOR     = 

OBJECT_NAME    = STARLINK-35852
OBJECT_ID      = 2025-283M
CENTER_NAME    = EARTH
REF_FRAME      = TEME
TIME_SYSTEM    = UTC
MEAN_ELEMENT_THEORY = SGP/SGP4

EPOCH          = 2025-12-25T18:00:02.000160
MEAN_MOTION    = 15.59641339
ECCENTRICITY   = .0000848
INCLINATION    = 53.1596
RA_OF_ASC_NODE = 8.9869
ARG_OF_PERICENTER = 89.8030
MEAN_ANOMALY   = 293.6259

EPHEMERIS_TYPE = 0
CLASSIFICATION_TYPE = U
NORAD_CAT_ID   = 66889
ELEMENT_SET_NO = 999
REV_AT_EPOCH   = 452
BSTAR          = -.27601E-1
MEAN_MOTION_DOT = -.1971267E-1
MEAN_MOTION_DDOT = 0

CCSDS_OMM_VERS = 2.0
CREATION_DATE  = 
ORIGINATOR     = 

OBJECT_NAME    = STARLINK-35885
OBJECT_ID      = 2025-283N
CENTER_NAME    = EARTH
REF_FRAME      = TEME
TIME_SYSTEM    = UTC
MEAN_ELEMENT_THEORY = SGP/SGP4

EPOCH          = 2025-12-25T18:00:02.000160
MEAN_MOTION    = 15.59642839
ECCENTRICITY   = .0000933
INCLINATION    = 53.1598
RA_OF_ASC_NODE = 8.9831
ARG_OF_PERICENTER = 90.4140
MEAN_ANOMALY   = 294.9304

EPHEMERIS_TYPE = 0
CLASSIFICATION_TYPE = U
NORAD_CAT_ID   = 66890
ELEMENT_SET_NO = 999
REV_AT_EPOCH   = 452
BSTAR          = -.27622E-1
MEAN_MOTION_DOT = -.1972733E-1
MEAN_MOTION_DDOT = 0

CCSDS_OMM_VERS = 2.0
CREATION_DATE  = 
ORIGINATOR     = 

OBJECT_NAME    = STARLINK-35855
OBJECT_ID      = 2025-283P
CENTER_NAME    = EARTH
REF_FRAME      = TEME
TIME_SYSTEM    = UTC
MEAN_ELEMENT_THEORY = SGP/SGP4

EPOCH          = 2025-12-25T18:00:02.000160
MEAN_MOTION    = 15.59643802
ECCENTRICITY   = .0000936
INCLINATION    = 53.1595
RA_OF_ASC_NODE = 8.9791
ARG_OF_PERICENTER = 90.6979
MEAN_ANOMALY   = 296.5636

EPHEMERIS_TYPE = 0
CLASSIFICATION_TYPE = U
NORAD_CAT_ID   = 66891
ELEMENT_SET_NO = 999
REV_AT_EPOCH   = 452
BSTAR          = -.27667E-1
MEAN_MOTION_DOT = -.197564E-1
MEAN_MOTION_DDOT = 0

