STARLINK-35844          
1 66880U 25283C   25359.75002315 -.01995938  00000+0 -27980-1 0  9997
2 66880  53.1597   9.0275 0001018  85.7024 278.5536 15.59653929  4520
STARLINK-35860          
1 66881U 25283D   25359.75002315 -.01993153  00000+0 -27937-1 0  9997
2 66881  53.1594   9.0186 0001130  80.8634 287.2262 15.59651377  4525
STARLINK-35912          
1 66882U 25283E   25359.75002315 -.01993462  00000+0 -27942-1 0  9997
2 66882  53.1597   9.0155 0001048  82.2226 287.7840 15.59652492  4522
STARLINK-35947          
1 66883U 25283F   25359.75002315 -.01980777  00000+0 -27748-1 0  9997
2 66883  53.1599   9.0119 0000926  90.3804 281.5471 15.59645457  4560
STARLINK-36057          
1 66884U 25283G   25359.75002315 -.01982444  00000+0 -27772-1 0  9998
2 66884  53.1597   9.0033 0000928  94.6869 281.0721 15.59648100  4521
STARLINK-35954          
1 66885U 25283H   25359.75002315 -.01975166  00000+0 -27661-1 0  9999
2 66885  53.1597   9.0076 0000907  93.8521 279.9924 15.59643082  4527
STARLINK-35900          
1 66886U 25283J   25359.75002315 -.01975965  00000+0 -27672-1 0  9999
2 66886  53.1596   8.9994 0000931  92.8240 284.8526 15.59644547  4528
STARLINK-35925          
1 66887U 25283K   25359.75002315 -.01972505  00000+0 -27621-1 0  9991
2 66887  53.1598   8.9956 0000887  93.2485 286.3475 15.59641447  4521
STARLINK-35919          
1 66888U 25283L   25359.75002315 -.01971418  00000+0 -27604-1 0  9995
2 66888  53.1596   8.9914 0000849  90.8859 290.6266 15.59641090  4520
STARLINK-35852          
1 66889U 25283M   25359.75002315 -.01971267  00000+0 -27601-1 0  9995
2 66889  53.1596   8.9869 0000848  89.8030 293.6259 15.59641339  4529
STARLINK-35885          
1 66890U 25283N   25359.75002315 -.01972733  00000+0 -27622-1 0  9999
2 66890  53.1598   8.9831 0000933  90.4140 294.9304 15.59642839  4528
STARLINK-35855          
1 66891U 25283P   25359.75002315 -.01975640  00000+0 -27667-1 0  9999
2 66891  53.1595   8.9791 0000936  90.6979 296.5636 15.59643802  4523
